{"type": "FeatureCollection", "features": [ {"type": "Feature", "properties": {"norad_id": 28649, "name": "IRS-P5 (CARTOSAT-1)", "group": "resource", "lat": -72.18292554285881, "lon": 167.55201959288348, "alt_km": 604.817390401884, "timestamp": "2025-12-11T10:53:15.541293+00:00", "meta": {"OBJECT_NAME": "IRS-P5 (CARTOSAT-1)", "OBJECT_ID": "2005-017A", "EPOCH": "2025-12-11T01:41:44.812320", "MEAN_MOTION": 14.9039469, "ECCENTRICITY": 0.0001314, "INCLINATION": 97.5497, "RA_OF_ASC_NODE": 11.5578, "ARG_OF_PERICENTER": 46.3716, "MEAN_ANOMALY": 313.7611, "EPHEMERIS_TYPE": 0, "CLASSIFICATION_TYPE": "U", "NORAD_CAT_ID": 28649, "ELEMENT_SET_NO": 999, "REV_AT_EPOCH": 11579, "BSTAR": 0.0002425, "MEAN_MOTION_DOT": 2.309e-05, "MEAN_MOTION_DDOT": 0}, "tle": {"line1": "1 28649U 05017A   25345.07065755  .00002309  00000+0  24250-3 0  9995", "line2": "2 28649  97.5497  11.5578 0001314  46.3716 313.7611 14.90394690115795"}}, "geometry": {"type": "Point", "coordinates": [167.55201959288348, -72.18292554285881]}}, {"type": "Feature", "properties": {"norad_id": 28893, "name": "SINAH 1", "group": "resource", "lat": 8.995123724530941, "lon": 112.68969888282162, "alt_km": 689.2976937149961, "timestamp": "2025-12-11T10:53:15.541306+00:00", "meta": {"OBJECT_NAME": "SINAH 1", "OBJECT_ID": "2005-043D", "EPOCH": "2025-12-11T04:17:04.877952", "MEAN_MOTION": 14.63959696, "ECCENTRICITY": 0.0015264, "INCLINATION": 98.2601, "RA_OF_ASC_NODE": 113.7316, "ARG_OF_PERICENTER": 141.6219, "MEAN_ANOMALY": 218.6072, "EPHEMERIS_TYPE": 0, "CLASSIFICATION_TYPE": "U", "NORAD_CAT_ID": 28893, "ELEMENT_SET_NO": 999, "REV_AT_EPOCH": 7301, "BSTAR": 0.00015992, "MEAN_MOTION_DOT": 7.89e-06, "MEAN_MOTION_DDOT": 0}, "tle": {"line1": "1 28893U 05043D   25345.17852868  .00000789  00000+0  15992-3 0  9998", "line2": "2 28893  98.2601 113.7316 0015264 141.6219 218.6072 14.63959696 73017"}}, "geometry": {"type": "Point", "coordinates": [112.68969888282162, 8.995123724530941]}}, {"type": "Feature", "properties": {"norad_id": 29079, "name": "EROS B", "group": "resource", "lat": -75.6207448867396, "lon": -108.25286410769372, "alt_km": 371.71876816215445, "timestamp": "2025-12-11T10:53:15.541318+00:00", "meta": {"OBJECT_NAME": "EROS B", "OBJECT_ID": "2006-014A", "EPOCH": "2025-12-11T03:39:50.503968", "MEAN_MOTION": 15.67587565, "ECCENTRICITY": 0.0001885, "INCLINATION": 97.3471, "RA_OF_ASC_NODE": 101.651, "ARG_OF_PERICENTER": 293.8286, "MEAN_ANOMALY": 66.2778, "EPHEMERIS_TYPE": 0, "CLASSIFICATION_TYPE": "U", "NORAD_CAT_ID": 29079, "ELEMENT_SET_NO": 999, "REV_AT_EPOCH": 9055, "BSTAR": 0.0019268, "MEAN_MOTION_DOT": 0.00214495, "MEAN_MOTION_DDOT": 0}, "tle": {"line1": "1 29079U 06014A   25345.15266787  .00214495  00000+0  19268-2 0  9991", "line2": "2 29079  97.3471 101.6510 0001885 293.8286  66.2778 15.67587565 90554"}}, "geometry": {"type": "Point", "coordinates": [-108.25286410769372, -75.6207448867396]}}, {"type": "Feature", "properties": {"norad_id": 29228, "name": "RESURS-DK 1", "group": "resource", "lat": 60.25167301106582, "lon": 144.92517024987447, "alt_km": 528.1948623972357, "timestamp": "2025-12-11T10:53:15.541329+00:00", "meta": {"OBJECT_NAME": "RESURS-DK 1", "OBJECT_ID": "2006-021A", "EPOCH": "2025-12-10T18:42:49.206816", "MEAN_MOTION": 15.1214377, "ECCENTRICITY": 0.00074309, "INCLINATION": 69.9334, "RA_OF_ASC_NODE": 106.9034, "ARG_OF_PERICENTER": 261.2716, "MEAN_ANOMALY": 98.7608, "EPHEMERIS_TYPE": 0, "CLASSIFICATION_TYPE": "U", "NORAD_CAT_ID": 29228, "ELEMENT_SET_NO": 999, "REV_AT_EPOCH": 7408, "BSTAR": 0.00025580505, "MEAN_MOTION_DOT": 4.317e-05, "MEAN_MOTION_DDOT": 0}, "tle": {"line1": "1 29228U 06021A   25344.77973619  .00004317  00000+0  25581-3 0  9997", "line2": "2 29228  69.9334 106.9034 0007430 261.2716  98.7608 15.12143770 74089"}}, "geometry": {"type": "Point", "coordinates": [144.92517024987447, 60.25167301106582]}}, {"type": "Feature", "properties": {"norad_id": 29268, "name": "ARIRANG-2 (KOMPSAT-2)", "group": "resource", "lat": -81.84322305897669, "lon": -112.35753030352566, "alt_km": 678.8592322958011, "timestamp": "2025-12-11T10:53:15.541341+00:00", "meta": {"OBJECT_NAME": "ARIRANG-2 (KOMPSAT-2)", "OBJECT_ID": "2006-031A", "EPOCH": "2025-12-11T05:00:12.870720", "MEAN_MOTION": 14.64490807, "ECCENTRICITY": 0.0013615, "INCLINATION": 97.8261, "RA_OF_ASC_NODE": 173.7559, "ARG_OF_PERICENTER": 314.514, "MEAN_ANOMALY": 106.0845, "EPHEMERIS_TYPE": 0, "CLASSIFICATION_TYPE": "U", "NORAD_CAT_ID": 29268, "ELEMENT_SET_NO": 999, "REV_AT_EPOCH": 3396, "BSTAR": 0.00010136, "MEAN_MOTION_DOT": 4.92e-06, "MEAN_MOTION_DDOT": 0}, "tle": {"line1": "1 29268U 06031A   25345.20848230  .00000492  00000+0  10136-3 0  9991", "line2": "2 29268  97.8261 173.7559 0013615 314.5140 106.0845 14.64490807 33961"}}, "geometry": {"type": "Point", "coordinates": [-112.35753030352566, -81.84322305897669]}}, {"type": "Feature", "properties": {"norad_id": 29709, "name": "LAPAN-TUBSAT", "group": "resource", "lat": 69.24527852582382, "lon": 177.73323789191352, "alt_km": 596.5955192403608, "timestamp": "2025-12-11T10:53:15.541353+00:00", "meta": {"OBJECT_NAME": "LAPAN-TUBSAT", "OBJECT_ID": "2007-001A", "EPOCH": "2025-12-11T05:33:00.061344", "MEAN_MOTION": 14.85666361, "ECCENTRICITY": 0.0013695, "INCLINATION": 98.1259, "RA_OF_ASC_NODE": 335.3565, "ARG_OF_PERICENTER": 78.43, "MEAN_ANOMALY": 281.8451, "EPHEMERIS_TYPE": 0, "CLASSIFICATION_TYPE": "U", "NORAD_CAT_ID": 29709, "ELEMENT_SET_NO": 999, "REV_AT_EPOCH": 2324, "BSTAR": 9.3825e-05, "MEAN_MOTION_DOT": 7.57e-06, "MEAN_MOTION_DDOT": 0}, "tle": {"line1": "1 29709U 07001A   25345.23125071  .00000757  00000+0  93825-4 0  9994", "line2": "2 29709  98.1259 335.3565 0013695  78.4300 281.8451 14.85666361 23245"}}, "geometry": {"type": "Point", "coordinates": [177.73323789191352, 69.24527852582382]}}, {"type": "Feature", "properties": {"norad_id": 31113, "name": "HAIYANG-1B", "group": "resource", "lat": -65.74937373257953, "lon": 130.8017631398033, "alt_km": 804.9802283204681, "timestamp": "2025-12-11T10:53:15.541364+00:00", "meta": {"OBJECT_NAME": "HAIYANG-1B", "OBJECT_ID": "2007-010A", "EPOCH": "2025-12-11T04:42:07.449120", "MEAN_MOTION": 14.30964143, "ECCENTRICITY": 0.001432, "INCLINATION": 98.3313, "RA_OF_ASC_NODE": 329.5378, "ARG_OF_PERICENTER": 42.2744, "MEAN_ANOMALY": 317.9541, "EPHEMERIS_TYPE": 0, "CLASSIFICATION_TYPE": "U", "NORAD_CAT_ID": 31113, "ELEMENT_SET_NO": 999, "REV_AT_EPOCH": 97374, "BSTAR": 9.2288e-05, "MEAN_MOTION_DOT": 2.01e-06, "MEAN_MOTION_DDOT": 0}, "tle": {"line1": "1 31113U 07010A   25345.19591955  .00000201  00000+0  92288-4 0  9995", "line2": "2 31113  98.3313 329.5378 0014320  42.2744 317.9541 14.30964143973743"}}, "geometry": {"type": "Point", "coordinates": [130.8017631398033, -65.74937373257953]}}, {"type": "Feature", "properties": {"norad_id": 31598, "name": "COSMO-SKYMED 1", "group": "resource", "lat": 18.17925585231428, "lon": 168.23640764845507, "alt_km": 580.1580533046636, "timestamp": "2025-12-11T10:53:15.541375+00:00", "meta": {"OBJECT_NAME": "COSMO-SKYMED 1", "OBJECT_ID": "2007-023A", "EPOCH": "2025-12-11T04:23:01.137120", "MEAN_MOTION": 14.95744113, "ECCENTRICITY": 0.0001094, "INCLINATION": 97.8835, "RA_OF_ASC_NODE": 170.5717, "ARG_OF_PERICENTER": 86.3493, "MEAN_ANOMALY": 273.7852, "EPHEMERIS_TYPE": 0, "CLASSIFICATION_TYPE": "U", "NORAD_CAT_ID": 31598, "ELEMENT_SET_NO": 999, "REV_AT_EPOCH": 167, "BSTAR": 0.00053108, "MEAN_MOTION_DOT": 5.861e-05, "MEAN_MOTION_DDOT": 0}, "tle": {"line1": "1 31598U 07023A   25345.18265205  .00005861  00000+0  53108-3 0  9995", "line2": "2 31598  97.8835 170.5717 0001094  86.3493 273.7852 14.95744113  1670"}}, "geometry": {"type": "Point", "coordinates": [168.23640764845507, 18.17925585231428]}}, {"type": "Feature", "properties": {"norad_id": 31698, "name": "TERRASAR-X", "group": "resource", "lat": -72.19618040929791, "lon": 14.88590604683613, "alt_km": 516.9556705338919, "timestamp": "2025-12-11T10:53:15.541386+00:00", "meta": {"OBJECT_NAME": "TERRASAR-X", "OBJECT_ID": "2007-026A", "EPOCH": "2025-12-10T13:04:49.433376", "MEAN_MOTION": 15.19151507, "ECCENTRICITY": 0.0001862, "INCLINATION": 97.446, "RA_OF_ASC_NODE": 349.9579, "ARG_OF_PERICENTER": 94.9214, "MEAN_ANOMALY": 265.2234, "EPHEMERIS_TYPE": 0, "CLASSIFICATION_TYPE": "U", "NORAD_CAT_ID": 31698, "ELEMENT_SET_NO": 999, "REV_AT_EPOCH": 2458, "BSTAR": 9.1186e-05, "MEAN_MOTION_DOT": 1.848e-05, "MEAN_MOTION_DDOT": 0}, "tle": {"line1": "1 31698U 07026A   25344.54501659  .00001848  00000+0  91186-4 0  9994", "line2": "2 31698  97.4460 349.9579 0001862  94.9214 265.2234 15.19151507 24589"}}, "geometry": {"type": "Point", "coordinates": [14.88590604683613, -72.19618040929791]}}, {"type": "Feature", "properties": {"norad_id": 32060, "name": "WORLDVIEW-1 (WV-1)", "group": "resource", "lat": -79.16340817411671, "lon": -119.69067460817612, "alt_km": 499.65544006928485, "timestamp": "2025-12-11T10:53:15.541398+00:00", "meta": {"OBJECT_NAME": "WORLDVIEW-1 (WV-1)", "OBJECT_ID": "2007-041A", "EPOCH": "2025-12-11T05:00:58.762944", "MEAN_MOTION": 15.24647376, "ECCENTRICITY": 7.41e-05, "INCLINATION": 97.3835, "RA_OF_ASC_NODE": 102.7114, "ARG_OF_PERICENTER": 105.8602, "MEAN_ANOMALY": 254.2717, "EPHEMERIS_TYPE": 0, "CLASSIFICATION_TYPE": "U", "NORAD_CAT_ID": 32060, "ELEMENT_SET_NO": 999, "REV_AT_EPOCH": 1424, "BSTAR": 0.00053613, "MEAN_MOTION_DOT": 0.00013179, "MEAN_MOTION_DDOT": 0}, "tle": {"line1": "1 32060U 07041A   25345.20901346  .00013179  00000+0  53613-3 0  9998", "line2": "2 32060  97.3835 102.7114 0000741 105.8602 254.2717 15.24647376 14242"}}, "geometry": {"type": "Point", "coordinates": [-119.69067460817612, -79.16340817411671]}}]}